P/2011 W1 (PANSTARRS),e,3.7186,161.7847,282.7603,4.664593,0.0978326,0.28782296,13.0347,06/21.0/2022,2000,g 11.5,4.0
# From MPC 79342
P/2011 Y2 (Boattini),e,6.3754,309.3419,131.9293,6.238756,0.0632495,0.71004099,237.8901,06/21.0/2022,2000,g 15.0,4.0
# From MPEC 2022-K19
P/2012 B1 (PANSTARRS),e,7.6103,36.2163,162.4349,6.531406,0.0590465,0.40894418,192.8154,06/21.0/2022,2000,g  9.0,4.0
# From MPC 78590
P/2012 C3 (PANSTARRS),e,9.0920,135.3677,344.9542,9.748681,0.0323806,0.63011148,359.9758,10/06.0/2011,2000,g 13.0,4.0
# From MPC 84931
P/2012 F2 (PANSTARRS),e,14.7043,226.9966,33.3247,6.334137,0.0618262,0.54140815,207.6624,06/21.0/2022,2000,g 12.0,4.0
# From MPEC 2022-ED3
P/2012 G1 (PANSTARRS),e,12.1743,283.2789,266.0932,4.164769,0.1159625,0.32958402,72.9130,06/21.0/2022,2000,g 15.0,4.0
# From MPC 80898
P/2012 K3 (Gibbs),e,13.1921,125.8158,172.2355,3.627553,0.1426538,0.42287543,148.1758,06/21.0/2022,2000,g 15.0,4.0
# From MPC 88326
P/2012 NJ (La Sagra),e,84.6211,315.5673,338.3768,8.464836,0.0400199,0.84688421,146.4003,06/21.0/2022,2000,g 14.5,4.0
# From MPC 81470
P/2012 O1 (McNaught),e,7.4284,91.9493,238.2987,3.541366,0.1478931,0.59446658,178.3774,06/21.0/2022,2000,g 17.5,4.0
# From MPC 80899
P/2012 O2 (McNaught),e,24.4768,120.6843,183.4692,3.625504,0.1427748,0.53230545,163.0436,06/21.0/2022,2000,g 17.0,4.0
# From MPEC 2022-K19
P/2012 O3 (McNaught),e,16.6157,336.4142,344.7520,4.574377,0.1007410,0.64717737,2.2403,06/21.0/2022,2000,g 16.5,4.0
# From MPC 82320
P/2012 T2 (PANSTARRS),e,12.5646,73.7157,310.6265,5.730550,0.0718472,0.16207137,240.1023,06/21.0/2022,2000,g 10.0,4.0
# From MPC 80900
P/2012 T3 (PANSTARRS),e,9.5620,114.3855,195.5222,6.151008,0.0646078,0.61698553,238.9408,06/21.0/2022,2000,g 15.0,4.0
# From MPEC 2022-L66
C/2012 T4 (McNaught),e,24.1112,99.3266,219.9493,222.7755,0.0002964,0.99123852,0.0000,10/15.1901/2012,2000,g 13.5,4.0
# From MPC 82720
P/2012 U2 (PANSTARRS),e,10.7591,185.3217,228.2412,7.134309,0.0517221,0.49948715,181.3937,06/21.0/2022,2000,g 12.5,4.0
# From MPC 84024
P/2012 US27 (Siding Spring),e,39.3630,49.1980,0.8097,5.165745,0.0839469,0.64808908,288.3629,06/21.0/2022,2000,g 13.5,4.0
# From MPEC 2022-L66
C/2012 V1 (PANSTARRS),e,157.8348,85.5194,123.6552,1548,0.0000162,0.99863268,0.0000,07/18.4182/2013,2000,g 12.0,4.0
# From MPC 82721
P/2012 WA34 (Lemmon-PANSTARRS),e,6.0790,93.6072,356.3546,4.690511,0.0970228,0.34482503,322.9688,06/21.0/2022,2000,g 13.5,4.0
# From MPC 82721
P/2013 AL76 (Catalina),e,144.8590,145.9986,27.0512,6.498020,0.0595021,0.68624009,207.4448,06/21.0/2022,2000,g 16.0,4.0
# From MPEC 2022-K19
P/2013 EW90,e,31.7922,160.2947,346.1438,4.113766,0.1181258,0.19464858,58.0532,06/21.0/2022,2000,g 14.3,4.0
# From MPC 91612
P/2013 G1 (Kowalski),e,5.4598,221.3331,51.5274,6.894895,0.0544393,0.51177317,169.5226,06/21.0/2022,2000,g 11.0,4.0
# From MPC 84025
P/2013 G4 (PANSTARRS),e,5.9162,339.6379,214.6449,4.439727,0.1053585,0.40935424,0.1724,06/21.0/2022,2000,g 15.0,4.0
# From MPEC 2022-L66
C/2013 G5 (Catalina),e,40.8545,143.9275,165.9226,2780,0.0000067,0.99966586,0.0000,09/04.3290/2013,2000,g 14.0,4.0
# From MPC 91613
P/2013 J2 (McNaught),e,15.5186,289.3757,37.8307,6.222760,0.0634935,0.65756718,204.2045,06/21.0/2022,2000,g 13.0,4.0
# From MPC 86229
P/2013 N3 (PANSTARRS),e,2.1740,17.4643,323.9528,7.393514,0.0490261,0.59325753,149.2846,06/21.0/2022,2000,g 13.0,4.0
# From MPC 85834
P/2013 N5 (PANSTARRS),e,23.4591,187.1554,176.9266,6.797271,0.0556163,0.73249807,181.9547,06/21.0/2022,2000,g 17.0,4.0
# From MPC 85834
P/2013 P1 (PANSTARRS),e,18.7254,160.5889,138.2359,8.578751,0.0392255,0.60512267,133.3162,06/21.0/2022,2000,g 12.0,4.0
# From MPC 94671
P/2013 R3 (Catalina-PANSTARRS),e,0.8649,341.9859,11.2532,3.032660,0.1866245,0.27553715,240.9131,06/21.0/2022,2000,g 14.0,4.0
# From unp
P/2013 R3-A (Catalina-PANSTARRS),e,0.8643,341.9527,11.2922,3.032517,0.1866376,0.27550678,240.9529,06/21.0/2022,2000,g  9.0,4.0
# From MPEC 2015-M77
P/2013 R3-B (Catalina-PANSTARRS),e,0.8655,342.0086,11.2270,3.032737,0.1866173,0.27555208,240.8918,06/21.0/2022,2000,g  9.0,4.0
# From MPC 85835
P/2013 T1 (PANSTARRS),e,24.3020,10.0803,346.1450,5.857881,0.0695174,0.62427347,225.2856,06/21.0/2022,2000,g 16.5,4.0
# From MPC 86643
P/2013 T2 (Schwartz),e,9.4578,0.7998,345.5627,3.491338,0.1510832,0.50120379,140.9788,06/21.0/2022,2000,g 16.0,4.0
# From MPC 91613
P/2013 W1 (PANSTARRS),e,4.6958,117.8437,1.2452,3.488231,0.1512851,0.59274970,98.1528,06/21.0/2022,2000,g 17.5,4.0
# From MPC101095
P/2013 YG46 (Spacewatch),e,7.8573,48.8364,242.5877,3.274496,0.1663364,0.45473087,326.8558,06/21.0/2022,2000,g 10.0,4.0
# From MPC 89728
P/2014 A2 (Hill),e,24.5389,106.6304,356.1558,5.927544,0.0682955,0.64543977,216.8897,06/21.0/2022,2000,g 15.0,4.0
# From MPC 92981
P/2014 A3 (PANSTARRS),e,13.7126,229.9783,214.0079,4.611437,0.0995290,0.24697051,329.6828,06/21.0/2022,2000,g 12.0,4.0
# From MPEC 2022-L66
C/2014 A5 (PANSTARRS),e,31.9728,310.0770,182.1053,80.77075,0.0013578,0.94076947,3.9040,06/21.0/2022,2000,g 10.0,4.0
# From MPEC 2022-HC2
C/2014 B1 (Schwartz),e,28.4116,161.4229,345.6435,4026,0.0000039,0.99762944,0.0000,09/06.3338/2017,2000,g  4.0,4.0
# From MPC102095
P/2014 C1 (TOTAS),e,2.6925,167.8030,23.8893,3.034496,0.1864550,0.45017829,216.8682,06/21.0/2022,2000,g 15.5,4.0
# From MPEC 2022-L66
C/2014 F2 (Tenagra),e,119.0112,267.3950,85.9967,153.5827,0.0005178,0.97200841,0.0000,01/05.4296/2015,2000,g  9.5,4.0
# From MPC 94280
C/2014 F3 (Sheppard-Trujillo),e,6.5627,326.5871,4.0542,14.83460,0.0172500,0.61615045,6.8139,06/21.0/2022,2000,g  6.0,4.0
# From MPEC 2022-M21
C/2014 G1 (PANSTARRS),e,165.6770,337.9638,77.4041,798.3183,0.0000437,0.99311455,0.0000,11/09.3184/2013,2000,g  9.0,4.0
# From MPC 98560
P/2014 L2 (NEOWISE),e,5.1999,149.3473,182.7010,6.304492,0.0622628,0.64815324,180.0291,06/21.0/2022,2000,g 12.0,4.0
# From MPC 90769
P/2014 L3 (Hill),e,6.2718,115.4850,178.6964,8.175691,0.0421616,0.77312277,122.7651,06/21.0/2022,2000,g 16.0,4.0
# From MPC 91614
P/2014 M4 (PANSTARRS),e,3.3407,263.2070,148.0020,5.869983,0.0693025,0.59522228,189.3579,06/21.0/2022,2000,g 15.0,4.0
# From MPEC 2022-K19
P/2014 MG4 (Spacewatch-PANSTARRS),e,9.3687,311.7326,299.0740,5.012842,0.0878169,0.25908313,288.9009,06/21.0/2022,2000,g  9.5,4.0
# From MPC 98560
P/2014 O3 (PANSTARRS),e,7.7994,87.6435,204.7521,7.573123,0.0472924,0.38503822,141.1324,06/21.0/2022,2000,g 10.5,4.0
# From MPEC 2022-C56
C/2014 OG392 (PANSTARRS),e,9.0328,145.7954,254.2093,12.24642,0.0229980,0.18591269,4.6002,06/21.0/2022,2000,g  6.0,4.0
# From MPEC 2022-M21
P/2014 R5 (Lemmon-PANSTARRS),e,1.0883,126.5638,213.7379,4.058633,0.1205409,0.41411174,353.0305,06/21.0/2022,2000,g 15.0,4.0
# From MPEC 2022-M21
C/2014 S1 (PANSTARRS),e,123.6718,352.6221,288.6717,45280,0.0000001,0.99982035,0.0000,10/24.8475/2013,2000,g  7.0,4.0
# From MPEC 2022-L66
C/2014 S3 (PANSTARRS),e,169.3190,355.9435,292.9128,82.91237,0.0013055,0.97523665,0.0000,08/07.7963/2014,2000,g 17.0,4.0
# From MPEC 2022-M21
C/2014 U3 (Kowalski),e,152.8692,163.5664,50.8353,340.2385,0.0001570,0.99253478,0.0000,08/31.8541/2014,2000,g 14.5,4.0
# From MPC 91616
P/2014 U4 (PANSTARRS),e,6.4292,11.8846,347.8018,3.507818,0.1500197,0.46493875,73.8677,06/21.0/2022,2000,g 18.0,4.0
# From MPC 95211
P/2014 V1 (PANSTARRS),e,22.5279,166.2005,177.6318,5.479746,0.0768358,0.53452460,207.6449,06/21.0/2022,2000,g 14.0,4.0
# From MPC 93586
P/2014 W1 (PANSTARRS),e,8.8367,246.2398,152.1575,4.464890,0.1044691,0.38913613,302.9162,06/21.0/2022,2000,g 15.5,4.0
# From MPC105542
P/2014 W4 (PANSTARRS),e,15.2815,33.3810,67.6412,6.591215,0.0582446,0.35285039,137.7594,06/21.0/2022,2000,g 11.0,4.0
# From MPEC 2022-L66
C/2014 W5 (Lemmon-PANSTARRS),e,145.6764,245.6114,281.6497,106.1165,0.0009016,0.97721669,0.0000,02/08.7353/2016,2000,g 10.0,4.0
# From MPC 94281
P/2014 X1 (Elenin),e,26.0359,61.5463,33.8890,6.206232,0.0637473,0.70919467,173.9424,06/21.0/2022,2000,g 15.0,4.0
# From MPC 92275
P/2015 A3 (PANSTARRS),e,172.5373,277.2717,249.3901,7.813195,0.0451296,0.85054663,120.9938,06/21.0/2022,2000,g 20.0,4.0
# From MPC 99270
P/2015 B1 (PANSTARRS),e,18.0465,352.9435,188.9007,9.493925,0.0336927,0.36681784,83.3853,06/21.0/2022,2000,g  8.5,4.0
# From MPC109141
P/2015 B4 (Lemmon-PANSTARRS),e,1.7620,266.0451,227.3207,8.520929,0.0396254,0.56024797,106.8196,06/21.0/2022,2000,g 11.0,4.0
# From MPC101096
P/2015 C1 (TOTAS-Gibbs),e,13.9091,348.7986,178.1622,6.577451,0.0584275,0.56055530,152.8183,06/21.0/2022,2000,g 12.5,4.0
# From MPC109141
P/2015 D5 (Kowalski),e,20.5238,74.0664,39.7141,8.957979,0.0367611,0.48946282,110.4239,06/21.0/2022,2000,g  9.0,4.0
# From MPC 96866
P/2015 D6 (Lemmon-PANSTARRS),e,20.2033,45.8981,125.0627,7.138555,0.0516760,0.36125797,131.7892,06/21.0/2022,2000,g 10.5,4.0
# From MPEC 2022-L66
C/2015 F4 (Jacques),e,48.6942,285.9156,36.4221,121.6934,0.0007342,0.98648480,0.0000,08/12.9910/2015,2000,g 11.0,4.0
# From MPEC 2021-P47
P/2015 HG16 (PANSTARRS),e,18.7992,57.8128,47.7099,4.764241,0.0947793,0.35235122,279.1171,06/21.0/2022,2000,g 12.5,4.0
# From MPC 95213
P/2015 K5 (PANSTARRS),e,39.9446,134.1939,106.3483,6.725286,0.0565116,0.55226618,145.5601,06/21.0/2022,2000,g 13.5,4.0
# From MPC107684
P/2015 M2 (PANSTARRS),e,3.9705,86.5857,225.8735,7.239417,0.0505998,0.18029778,125.1158,06/21.0/2022,2000,g  8.5,4.0
# From MPEC 2021-P47
C/2015 O1 (PANSTARRS),h,02/20.1421/2018,127.1973,299.8397,89.5749,1.001527,3.723667,2000,6.5,4.0
# From MPC 99819
P/2015 P4 (PANSTARRS),e,8.7173,104.7093,280.6234,6.047067,0.0662807,0.58555261,155.1946,06/21.0/2022,2000,g 14.0,4.0
# From MPEC 2022-K19
P/2015 PD229 (Cameron-ISON),e,2.0257,342.6454,352.6327,7.189694,0.0511256,0.32791393,127.7731,06/21.0/2022,2000,g 11.5,2.0
# From MPC 96867
P/2015 Q2 (Pimentel),e,146.5373,228.5049,244.6107,7.352746,0.0494345,0.75053921,122.5750,06/21.0/2022,2000,g 15.5,4.0
# From MPC 98562
P/2015 R1 (PANSTARRS),e,22.6931,48.3487,300.5425,5.880175,0.0691224,0.63439881,176.0962,06/21.0/2022,2000,g 14.0,4.0
# From MPC 95734
